NORAD_CAT_ID,OBJECT_NAME,OBJECT_TYPE,EPOCH,MEAN_MOTION,ECCENTRICITY,INCLINATION,RA_OF_ASC_NODE,ARG_OF_PERICENTER,MEAN_ANOMALY,BSTAR,MEAN_MOTION_DOT,MEAN_MOTION_DDOT,TLE_LINE0,TLE_LINE1,TLE_LINE2,SEMIMAJOR_AXIS,PERIOD,APOGEE,PERIGEE,DECAYED
53719.0,STARLINK-4644,PAYLOAD,2024-05-04 20:34:58,15.08837934,0.0001307,53.2169,8.6943,86.4376,273.6766,0.00012233,1.659e-05,0.0,0 STARLINK-4644,1 53719U 22107V   24125.85762416  .00001659  00000-0  12233-3 0  9995,2 53719  53.2169   8.6943 0001307  86.4376 273.6766 15.08837934 92644,6917.887,95.438,540.656,538.848,0.0
53719.0,STARLINK-4644,PAYLOAD,2024-05-04 23:45:45,15.08840356,0.0001188,53.2168,8.099,80.4811,279.6315,0.00046347,7.096e-05,0.0,0 STARLINK-4644,1 53719U 22107V   24125.99010560  .00007096  00000-0  46347-3 0  9990,2 53719  53.2168   8.0990 0001188  80.4811 279.6315 15.08840356 93137,6917.879,95.438,540.566,538.922,0.0
53719.0,STARLINK-4644,PAYLOAD,2024-05-05 20:25:45,15.08863128,0.0001151,53.2166,4.2339,78.2325,281.8796,0.00094323,0.00014765,0.0,0 STARLINK-4644,1 53719U 22107V   24126.85122246  .00014765  00000-0  94323-3 0  9999,2 53719  53.2166   4.2339 0001151  78.2325 281.8796 15.08863128 92796,6917.81,95.436,540.471,538.878,0.0
53719.0,STARLINK-4644,PAYLOAD,2024-05-05 22:01:08,15.08866977,0.0001174,53.2166,3.9363,76.9356,283.1767,0.0010422,0.0001635,0.0,0 STARLINK-4644,1 53719U 22107V   24126.91746118  .00016350  00000-0  10422-2 0  9995,2 53719  53.2166   3.9363 0001174  76.9356 283.1767 15.08866977 93275,6917.798,95.436,540.475,538.851,0.0
53719.0,STARLINK-4644,PAYLOAD,2024-05-06 09:08:51,15.08848579,0.0001289,53.2161,1.8549,70.2261,289.887,0.00056866,8.776e-05,0.0,0 STARLINK-4644,1 53719U 22107V   24127.38114604  .00008776  00000-0  56866-3 0  9992,2 53719  53.2161   1.8549 0001289  70.2261 289.8870 15.08848579 92873,6917.854,95.437,540.611,538.827,0.0
53719.0,STARLINK-4644,PAYLOAD,2024-05-06 21:51:57,15.08810169,3.64e-05,53.2153,359.4752,66.037,294.066,-0.00013327,-2.406e-05,0.0,0 STARLINK-4644,1 53719U 22107V   24127.91107821 -.00002406  00000-0 -13327-3 0  9995,2 53719  53.2153 359.4752 0000364  66.0370 294.0660 15.08810169 92957,6917.972,95.439,540.088,539.585,0.0
53719.0,STARLINK-4644,PAYLOAD,2024-05-07 08:59:38,15.0886384,0.0001272,53.2164,357.395,84.4007,275.713,0.0021545,0.0003419,0.0,0 STARLINK-4644,1 53719U 22107V   24128.37475567  .00034190  00000-0  21545-2 0  9994,2 53719  53.2164 357.3950 0001272  84.4007 275.7130 15.08863840 93027,6917.808,95.436,540.552,538.793,0.0
53719.0,STARLINK-4644,PAYLOAD,2024-05-07 20:07:20,15.08862127,0.0001391,53.2184,355.3129,97.2693,262.8457,0.00069459,0.0001079,0.0,0 STARLINK-4644,1 53719U 22107V   24128.83843037  .00010790  00000-0  69459-3 0  9993,2 53719  53.2184 355.3129 0001391  97.2693 262.8457 15.08862127 93093,6917.813,95.436,540.64,538.715,0.0
53719.0,STARLINK-4644,PAYLOAD,2024-05-07 21:42:43,15.08858035,0.0001444,53.2184,355.0157,94.3731,265.7426,0.00086316,0.00013483,0.0,0 STARLINK-4644,1 53719U 22107V   24128.90467065  .00013483  00000-0  86316-3 0  9997,2 53719  53.2184 355.0157 0001444  94.3731 265.7426 15.08858035 93575,6917.825,95.436,540.689,538.691,0.0
53719.0,STARLINK-4644,PAYLOAD,2024-05-08 00:53:29,15.08863649,0.0001561,53.2188,354.4193,99.0211,261.0958,0.00084329,0.00013167,0.0,0 STARLINK-4644,1 53719U 22107V   24129.03714743  .00013167  00000-0  84329-3 0  9991,2 53719  53.2188 354.4193 0001561  99.0211 261.0958 15.08863649 93595,6917.808,95.436,540.753,538.593,0.0
53719.0,STARLINK-4644,PAYLOAD,2024-05-08 21:33:29,15.08853358,0.0001334,53.2168,350.551,80.9328,279.1815,0.00027119,4.032e-05,0.0,0 STARLINK-4644,1 53719U 22107V   24129.89826185  .00004032  00000-0  27119-3 0  9994,2 53719  53.2168 350.5510 0001334  80.9328 279.1815 15.08853358 93250,6917.84,95.437,540.627,538.782,0.0
53719.0,STARLINK-4644,PAYLOAD,2024-05-09 07:05:47,15.08865689,0.0001389,53.2183,348.7712,88.4496,271.6655,0.00019706,2.852e-05,0.0,0 STARLINK-4644,1 53719U 22107V   24130.29569097  .00002852  00000-0  19706-3 0  9997,2 53719  53.2183 348.7712 0001389  88.4496 271.6655 15.08865689 93315,6917.802,95.436,540.628,538.706,0.0
53719.0,STARLINK-4644,PAYLOAD,2024-05-09 19:48:53,15.08836942,0.0001515,53.2177,346.3892,92.2823,267.8343,-0.00021222,-3.664e-05,0.0,0 STARLINK-4644,1 53719U 22107V   24130.82562039 -.00003664  00000-0 -21222-3 0  9995,2 53719  53.2177 346.3892 0001515  92.2823 267.8343 15.08836942 93398,6917.89,95.438,540.803,538.707,0.0
53719.0,STARLINK-4644,PAYLOAD,2024-05-10 06:56:35,15.08851715,0.0001713,53.2194,344.3124,95.3141,264.8046,0.00013487,1.86e-05,0.0,0 STARLINK-4644,1 53719U 22107V   24131.28929578  .00001860  00000-0  13487-3 0  9999,2 53719  53.2194 344.3124 0001713  95.3141 264.8046 15.08851715 93932,6917.845,95.437,540.895,538.525,0.0
53719.0,STARLINK-4644,PAYLOAD,2024-05-10 21:15:03,15.088438,0.0001645,53.2184,341.6404,110.4964,249.6205,0.000161,2.275e-05,0.0,0 STARLINK-4644,1 53719U 22107V   24131.88545961  .00002275  00000-0  16100-3 0  9991,2 53719  53.2184 341.6404 0001645 110.4964 249.6205 15.08843800 93550,6917.869,95.437,540.872,538.596,0.0
53719.0,STARLINK-4644,PAYLOAD,2024-05-11 22:41:12,15.08781326,0.0001161,53.2168,336.8778,90.344,269.7685,-0.0022248,-0.00035464,0.0,0 STARLINK-4644,1 53719U 22107V   24132.94528414 -.00035464  00000-0 -22248-2 0  9990,2 53719  53.2168 336.8778 0001161  90.3440 269.7685 15.08781326 94189,6918.06,95.441,540.728,539.122,0.0
53719.0,STARLINK-4644,PAYLOAD,2024-05-12 06:38:09,15.08768403,0.0001052,53.2167,335.3908,102.6521,257.4589,-0.0015684,-0.00025113,0.0,0 STARLINK-4644,1 53719U 22107V   24133.27650104 -.00025113  00000-0 -15684-2 0  9995,2 53719  53.2167 335.3908 0001052 102.6521 257.4589 15.08768403 94237,6918.099,95.442,540.692,539.236,0.0
53719.0,STARLINK-4644,PAYLOAD,2024-05-12 20:56:40,15.08817569,0.0001327,53.216,332.7144,98.3126,261.8016,0.00062178,9.615e-05,0.0,0 STARLINK-4644,1 53719U 22107V   24133.87268650  .00009615  00000-0  62178-3 0  9990,2 53719  53.2160 332.7144 0001327  98.3126 261.8016 15.08817569 93859,6917.949,95.439,540.732,538.896,0.0
53719.0,STARLINK-4644,PAYLOAD,2024-05-13 12:50:32,15.08839317,0.0001467,53.2162,329.7373,102.6848,257.4308,0.0011683,0.00018354,0.0,0 STARLINK-4644,1 53719U 22107V   24134.53509697  .00018354  00000-0  11683-2 0  9997,2 53719  53.2162 329.7373 0001467 102.6848 257.4308 15.08839317 94420,6917.882,95.438,540.762,538.733,0.0
53719.0,STARLINK-4644,PAYLOAD,2024-05-13 19:12:04,15.08854186,0.0001472,53.2162,328.5492,92.074,268.0421,0.00096493,0.00015108,0.0,0 STARLINK-4644,1 53719U 22107V   24134.80005171  .00015108  00000-0  96493-3 0  9992,2 53719  53.2162 328.5492 0001472  92.0740 268.0421 15.08854186 93994,6917.837,95.437,540.72,538.684,0.0
53719.0,STARLINK-4644,PAYLOAD,2024-05-14 12:41:17,15.08873478,0.0001711,53.2164,325.2771,94.5499,265.5689,0.00065927,0.00010229,0.0,0 STARLINK-4644,1 53719U 22107V   24135.52867674  .00010229  00000-0  65927-3 0  9993,2 53719  53.2164 325.2771 0001711  94.5499 265.5689 15.08873478 94572,6917.778,95.435,540.827,538.459,0.0
53719.0,STARLINK-4644,PAYLOAD,2024-05-14 19:02:49,15.0888326,0.0001801,53.2165,324.0876,92.8996,267.2202,0.00065057,0.00010093,0.0,0 STARLINK-4644,1 53719U 22107V   24135.79362856  .00010093  00000-0  65057-3 0  9997,2 53719  53.2165 324.0876 0001801  92.8996 267.2202 15.08883260 94614,6917.748,95.435,540.859,538.367,0.0
53719.0,STARLINK-4644,PAYLOAD,2024-05-15 18:53:35,15.08849906,0.0001191,53.2151,319.6259,97.0615,263.0512,-0.00020719,-3.585e-05,0.0,0 STARLINK-4644,1 53719U 22107V   24136.78722011 -.00003585  00000-0 -20719-3 0  9996,2 53719  53.2151 319.6259 0001191  97.0615 263.0512 15.08849906 94292,6917.85,95.437,540.539,538.891,0.0
53719.0,STARLINK-4644,PAYLOAD,2024-05-15 22:04:22,15.08848335,0.0001338,53.2162,319.0312,112.8713,247.2421,-0.00016563,-2.924e-05,0.0,0 STARLINK-4644,1 53719U 22107V   24136.91969941 -.00002924  00000-0 -16563-3 0  9994,2 53719  53.2162 319.0312 0001338 112.8713 247.2421 15.08848335 94788,6917.855,95.437,540.646,538.794,0.0
53719.0,STARLINK-4644,PAYLOAD,2024-05-16 12:22:50,15.08844012,0.0001494,53.2169,316.3535,115.9149,244.1998,0.00031507,4.73e-05,0.0,0 STARLINK-4644,1 53719U 22107V   24137.51586231  .00004730  00000-0  31507-3 0  9998,2 53719  53.2169 316.3535 0001494 115.9149 244.1998 15.08844012 94875,6917.868,95.437,540.767,538.7,0.0
53719.0,STARLINK-4644,PAYLOAD,2024-05-16 21:55:09,15.08848925,0.0001145,53.2178,314.5724,83.5667,276.5456,0.00046154,7.067e-05,0.0,0 STARLINK-4644,1 53719U 22107V   24137.91330206  .00007067  00000-0  46154-3 0  9991,2 53719  53.2178 314.5724 0001145  83.5667 276.5456 15.08848925 94935,6917.853,95.437,540.51,538.926,0.0
53719.0,STARLINK-4644,PAYLOAD,2024-05-17 04:16:40,15.08875217,4.09e-05,53.2169,313.3828,94.6075,265.4963,0.00097256,0.00015239,0.0,0 STARLINK-4644,1 53719U 22107V   24138.17825025  .00015239  00000-0  97256-3 0  9997,2 53719  53.2169 313.3828 0000409  94.6075 265.4963 15.08875217 94502,6917.773,95.435,539.921,539.355,0.0
53719.0,STARLINK-4644,PAYLOAD,2024-05-17 12:13:38,15.08799613,0.000117,53.2166,311.8943,80.8793,279.2332,-0.0009976,-0.00016112,0.0,0 STARLINK-4644,1 53719U 22107V   24138.50947444 -.00016112  00000-0 -99760-3 0  9999,2 53719  53.2166 311.8943 0001170  80.8793 279.2332 15.08799613 94553,6918.004,95.44,540.678,539.059,0.0
53719.0,STARLINK-4644,PAYLOAD,2024-05-18 04:07:29,15.08834031,0.0001417,53.2171,308.9222,86.1484,273.967,0.00023874,3.513e-05,0.0,0 STARLINK-4644,1 53719U 22107V   24139.17187485  .00003513  00000-0  23874-3 0  9996,2 53719  53.2171 308.9222 0001417  86.1484 273.9670 15.08834031 94657,6917.899,95.438,540.744,538.783,0.0
53719.0,STARLINK-4644,PAYLOAD,2024-05-18 10:29:02,15.08833307,0.0001747,53.2145,307.7339,88.3848,271.7345,0.00031661,4.753e-05,0.0,0 STARLINK-4644,1 53719U 22107V   24139.43683844  .00004753  00000-0  31661-3 0  9995,2 53719  53.2145 307.7339 0001747  88.3848 271.7345 15.08833307 95165,6917.901,95.438,540.974,538.557,0.0
